COMMENT,ORIGINATOR,NORAD_CAT_ID,OBJECT_NAME,OBJECT_TYPE,CLASSIFICATION_TYPE,INTLDES,EPOCH,EPOCH_MICROSECONDS,MEAN_MOTION,ECCENTRICITY,INCLINATION,RA_OF_ASC_NODE,ARG_OF_PERICENTER,MEAN_ANOMALY,EPHEMERIS_TYPE,ELEMENT_SET_NO,REV_AT_EPOCH,BSTAR,MEAN_MOTION_DOT,MEAN_MOTION_DDOT,FILE,TLE_LINE0,TLE_LINE1,TLE_LINE2,OBJECT_ID,OBJECT_NUMBER,SEMIMAJOR_AXIS,PERIOD,APOGEE,PERIGEE,DECAYED,date
GENERATED VIA SPACETRACK.ORG API,18 SPCS,48884,SPACEBEE-101,PAYLOAD,U,21059F,2023/1/23 22:19,441248,15.21305572,0.0008116,97.5769,158.4152,57.72,302.482,0,999,8737,0.0013182,0.0002954,0,3759394,0 SPACEBEE-101,1 48884U 21059F   23023.93015557  .00029540  00000-0  13182-2 0  9991,2 48884  97.5769 158.4152 0008116  57.7200 302.4820 15.21305572 87375,2021-059F,48884,6880.039,94.656,507.487,496.32,0,2023/2/16
GENERATED VIA SPACETRACK.ORG API,18 SPCS,48884,SPACEBEE-101,PAYLOAD,U,21059F,2023/1/25 2:44,276992,15.21371262,0.0008136,97.577,159.6066,53.5454,306.653,0,999,8755,0.0013136,0.00029493,0,3760421,0 SPACEBEE-101,1 48884U 21059F   23025.11407728  .00029493  00000-0  13136-2 0  9994,2 48884  97.5770 159.6066 0008136  53.5454 306.6530 15.21371262 87554,2021-059F,48884,6879.84,94.651,507.303,496.108,0,2023/2/17
GENERATED VIA SPACETRACK.ORG API,18 SPCS,48884,SPACEBEE-101,PAYLOAD,U,21059F,2023/1/25 7:28,334464,15.21379325,0.0008154,97.577,159.8052,52.8819,307.316,0,999,8758,0.0011091,0.00024881,0,3761297,0 SPACEBEE-101,1 48884U 21059F   23025.31139276  .00024881  00000-0  11091-2 0  9990,2 48884  97.5770 159.8052 0008154  52.8819 307.3160 15.21379325 87586,2021-059F,48884,6879.816,94.651,507.291,496.071,0,2023/2/18
GENERATED VIA SPACETRACK.ORG API,18 SPCS,48884,SPACEBEE-101,PAYLOAD,U,21059F,2023/1/25 20:06,336064,15.21406596,0.0008153,97.5769,160.3344,51.7611,308.4357,0,999,8766,0.0011413,0.00025628,0,3761360,0 SPACEBEE-101,1 48884U 21059F   23025.83756176  .00025628  00000-0  11413-2 0  9999,2 48884  97.5769 160.3344 0008153  51.7611 308.4357 15.21406596 87662,2021-059F,48884,6879.734,94.649,507.208,495.99,0,2023/2/19
GENERATED VIA SPACETRACK.ORG API,18 SPCS,48884,SPACEBEE-101,PAYLOAD,U,21059F,2023/1/26 8:43,466752,15.2143416,0.0008165,97.5769,160.8643,49.8009,310.394,0,999,8774,0.0011388,0.00025593,0,3761837,0 SPACEBEE-101,1 48884U 21059F   23026.36372068  .00025593  00000-0  11388-2 0  9994,2 48884  97.5769 160.8643 0008165  49.8009 310.3940 15.21434160 87748,2021-059F,48884,6879.651,94.648,507.133,495.899,0,2023/2/20
GENERATED VIA SPACETRACK.ORG API,18 SPCS,48884,SPACEBEE-101,PAYLOAD,U,21059F,2023/1/26 8:43,466752,15.2143416,0.0008165,97.5769,160.8643,49.8009,310.394,0,999,8774,0.0011388,0.00025593,0,3761951,0 SPACEBEE-101,1 48884U 21059F   23026.36372068  .00025593  00000-0  11388-2 0  9994,2 48884  97.5769 160.8643 0008165  49.8009 310.3940 15.21434160 87748,2021-059F,48884,6879.651,94.648,507.133,495.899,0,2023/2/21
GENERATED VIA SPACETRACK.ORG API,18 SPCS,48884,SPACEBEE-101,PAYLOAD,U,21059F,2023/1/27 14:43,282080,15.21491935,0.0008123,97.5763,162.1221,45.3366,314.853,0,999,8793,0.00099087,0.00022286,0,3762956,0 SPACEBEE-101,1 48884U 21059F   23027.61331345  .00022286  00000-0  99087-3 0  9995,2 48884  97.5763 162.1221 0008123  45.3366 314.8530 15.21491935 87938,2021-059F,48884,6879.477,94.644,506.93,495.754,0,2023/2/22
GENERATED VIA SPACETRACK.ORG API,18 SPCS,48884,SPACEBEE-101,PAYLOAD,U,21059F,2023/1/27 14:43,282080,15.21491935,0.0008123,97.5763,162.1221,45.3366,314.853,0,999,8793,0.00099087,0.00022286,0,3763030,0 SPACEBEE-101,1 48884U 21059F   23027.61331345  .00022286  00000-0  99087-3 0  9995,2 48884  97.5763 162.1221 0008123  45.3366 314.8530 15.21491935 87938,2021-059F,48884,6879.477,94.644,506.93,495.754,0,2023/2/23
GENERATED VIA SPACETRACK.ORG API,18 SPCS,48884,SPACEBEE-101,PAYLOAD,U,21059F,2023/1/28 8:04,463872,15.21520805,0.0008084,97.5762,162.8507,41.9482,318.2372,0,999,8804,0.00087982,0.00019791,0,3763924,0 SPACEBEE-101,1 48884U 21059F   23028.33674148  .00019791  00000-0  87982-3 0  9994,2 48884  97.5762 162.8507 0008084  41.9482 318.2372 15.21520805 88042,2021-059F,48884,6879.39,94.642,506.816,495.693,0,2023/2/24
GENERATED VIA SPACETRACK.ORG API,18 SPCS,48884,SPACEBEE-101,PAYLOAD,U,21059F,2023/1/28 20:42,273344,15.21542175,0.0008015,97.5762,163.3801,40.5561,319.627,0,999,8812,0.00082718,0.00018611,0,3764201,0 SPACEBEE-101,1 48884U 21059F   23028.86286196  .00018611  00000-0  82718-3 0  9996,2 48884  97.5762 163.3801 0008015  40.5561 319.6270 15.21542175 88127,2021-059F,48884,6879.325,94.641,506.704,495.676,0,2023/2/25
GENERATED VIA SPACETRACK.ORG API,18 SPCS,48884,SPACEBEE-101,PAYLOAD,U,21059F,2023/1/28 22:17,344288,15.21544479,0.0008053,97.576,163.4462,40.1142,320.0687,0,999,8813,0.00083308,0.00018746,0,3764295,0 SPACEBEE-101,1 48884U 21059F   23028.92862667  .00018746  00000-0  83308-3 0  9991,2 48884  97.5760 163.4462 0008053  40.1142 320.0687 15.21544479 88130,2021-059F,48884,6879.318,94.641,506.723,495.643,0,2023/2/26
GENERATED VIA SPACETRACK.ORG API,18 SPCS,48884,SPACEBEE-101,PAYLOAD,U,21059F,2023/1/29 20:23,168512,15.2157923,0.0008055,97.576,164.3726,37.269,322.9103,0,999,8827,0.00073769,0.00016603,0,3765015,0 SPACEBEE-101,1 48884U 21059F   23029.84931908  .00016603  00000-0  73769-3 0  9998,2 48884  97.5760 164.3726 0008055  37.2690 322.9103 15.21579230 88272,2021-059F,48884,6879.214,94.639,506.62,495.537,0,2023/2/27
GENERATED VIA SPACETRACK.ORG API,18 SPCS,48884,SPACEBEE-101,PAYLOAD,U,21059F,2023/1/30 2:41,809472,15.21587774,0.0008066,97.5761,164.6376,36.2823,323.8958,0,999,8831,0.00076343,0.00017191,0,3765124,0 SPACEBEE-101,1 48884U 21059F   23030.11237048  .00017191  00000-0  76343-3 0  9998,2 48884  97.5761 164.6376 0008066  36.2823 323.8958 15.21587774 88311,2021-059F,48884,6879.188,94.638,506.602,495.504,0,2023/2/28
GENERATED VIA SPACETRACK.ORG API,18 SPCS,48884,SPACEBEE-101,PAYLOAD,U,21059F,2023/1/30 7:25,430464,15.21594965,0.0008048,97.576,164.8363,35.7801,324.3972,0,999,8834,0.00074624,0.00016805,0,3765576,0 SPACEBEE-101,1 48884U 21059F   23030.30965776  .00016805  00000-0  74624-3 0  9996,2 48884  97.5760 164.8363 0008048  35.7801 324.3972 15.21594965 88343,2021-059F,48884,6879.166,94.638,506.568,495.495,0,2023/3/1
GENERATED VIA SPACETRACK.ORG API,18 SPCS,48884,SPACEBEE-101,PAYLOAD,U,21059F,2023/1/30 21:38,896864,15.2161437,0.0008042,97.5761,165.4322,34.1653,326.0099,0,999,8843,0.00070264,0.00015825,0,3765849,0 SPACEBEE-101,1 48884U 21059F   23030.90151501  .00015825  00000-0  70264-3 0  9992,2 48884  97.5761 165.4322 0008042  34.1653 326.0099 15.21614370 88430,2021-059F,48884,6879.108,94.636,506.505,495.44,0,2023/3/2
GENERATED VIA SPACETRACK.ORG API,18 SPCS,48884,SPACEBEE-101,PAYLOAD,U,21059F,2023/1/31 8:41,204960,15.21632094,0.0008021,97.5761,165.8958,32.9632,327.2102,0,999,8850,0.00076208,0.00017182,0,3766277,0 SPACEBEE-101,1 48884U 21059F   23031.36184265  .00017182  00000-0  76208-3 0  9998,2 48884  97.5761 165.8958 0008021  32.9632 327.2102 15.21632094 88508,2021-059F,48884,6879.054,94.635,506.437,495.402,0,2023/3/3
GENERATED VIA SPACETRACK.ORG API,18 SPCS,48884,SPACEBEE-101,PAYLOAD,U,21059F,2023/1/31 8:41,204960,15.21632094,0.0008021,97.5761,165.8958,32.9632,327.2102,0,999,8850,0.00076208,0.00017182,0,3766475,0 SPACEBEE-101,1 48884U 21059F   23031.36184265  .00017182  00000-0  76208-3 0  9998,2 48884  97.5761 165.8958 0008021  32.9632 327.2102 15.21632094 88508,2021-059F,48884,6879.054,94.635,506.437,495.402,0,2023/3/4
GENERATED VIA SPACETRACK.ORG API,18 SPCS,48884,SPACEBEE-101,PAYLOAD,U,21059F,2023/2/1 8:21,63872,15.21669463,0.0007967,97.5762,166.8891,29.8045,330.3642,0,999,8865,0.00079836,0.00018025,0,3767525,0 SPACEBEE-101,1 48884U 21059F   23032.34824148  .00018025  00000-0  79836-3 0  9995,2 48884  97.5762 166.8891 0007967  29.8045 330.3642 15.21669463 88657,2021-059F,48884,6878.942,94.633,506.287,495.326,0,2023/3/5
GENERATED VIA SPACETRACK.ORG API,18 SPCS,48884,SPACEBEE-101,PAYLOAD,U,21059F,2023/2/2 8:01,819808,15.21710541,0.0007903,97.5762,167.8824,26.2602,333.9033,0,999,8880,0.00094322,0.00021344,0,3768366,0 SPACEBEE-101,1 48884U 21059F   23033.33461597  .00021344  00000-0  94322-3 0  9995,2 48884  97.5762 167.8824 0007903  26.2602 333.9033 15.21710541 88808,2021-059F,48884,6878.818,94.63,506.119,495.247,0,2023/3/6
GENERATED VIA SPACETRACK.ORG API,18 SPCS,48884,SPACEBEE-101,PAYLOAD,U,21059F,2023/2/2 8:01,819808,15.21710541,0.0007903,97.5762,167.8824,26.2602,333.9033,0,999,8880,0.00094322,0.00021344,0,3768502,0 SPACEBEE-101,1 48884U 21059F   23033.33461597  .00021344  00000-0  94322-3 0  9995,2 48884  97.5762 167.8824 0007903  26.2602 333.9033 15.21710541 88808,2021-059F,48884,6878.818,94.63,506.119,495.247,0,2023/3/7
GENERATED VIA SPACETRACK.ORG API,18 SPCS,48884,SPACEBEE-101,PAYLOAD,U,21059F,2023/2/3 7:42,404512,15.21747355,0.0007858,97.5764,168.8756,22.588,337.57,0,999,8895,0.0008664,0.00019616,0,3770323,0 SPACEBEE-101,1 48884U 21059F   23034.32096533  .00019616  00000-0  86640-3 0  9992,2 48884  97.5764 168.8756 0007858  22.5880 337.5700 15.21747355 88951,2021-059F,48884,6878.707,94.628,505.977,495.167,0,2023/3/8
GENERATED VIA SPACETRACK.ORG API,18 SPCS,48884,SPACEBEE-101,PAYLOAD,U,21059F,2023/2/3 7:42,404512,15.21747355,0.0007858,97.5764,168.8756,22.588,337.57,0,999,8895,0.0008664,0.00019616,0,3770945,0 SPACEBEE-101,1 48884U 21059F   23034.32096533  .00019616  00000-0  86640-3 0  9992,2 48884  97.5764 168.8756 0007858  22.5880 337.5700 15.21747355 88951,2021-059F,48884,6878.707,94.628,505.977,495.167,0,2023/3/9
GENERATED VIA SPACETRACK.ORG API,18 SPCS,48884,SPACEBEE-101,PAYLOAD,U,21059F,2023/2/4 8:57,770912,15.21794701,0.0007823,97.5768,169.935,19.4933,340.66,0,999,8911,0.00097542,0.00022131,0,3771629,0 SPACEBEE-101,1 48884U 21059F   23035.37304133  .00022131  00000-0  97542-3 0  9995,2 48884  97.5768 169.9350 0007823  19.4933 340.6600 15.21794701 89113,2021-059F,48884,6878.564,94.625,505.81,495.048,0,2023/3/10
